{
  "type": "FeatureCollection",
  "features": [
    {
      "type": "Feature",
      "properties": {
        "norad_id": 66765,
        "name": "TRANSPORTER-15 DD",
        "group": "last-30-days",
        "lat": 28.359408252791795,
        "lon": -109.88245473570284,
        "alt_km": 507.62025351416196,
        "timestamp": "2025-12-20T09:36:00.352998+00:00",
        "meta_object_name": "TRANSPORTER-15 DD",
        "meta_object_id": "2025-276DD",
        "meta_epoch": "2025-12-20T02:36:39.213216",
        "meta_mean_motion": 15.18662089,
        "meta_eccentricity": 0.0001776,
        "meta_inclination": 97.4432,
        "meta_ra_of_asc_node": 65.7842,
        "meta_arg_of_pericenter": 122.5076,
        "meta_mean_anomaly": 237.633,
        "meta_ephemeris_type": 0,
        "meta_classification_type": "U",
        "meta_norad_cat_id": 66765,
        "meta_element_set_no": 999,
        "meta_rev_at_epoch": 324,
        "meta_bstar": 0.00039266,
        "meta_mean_motion_dot": 8.073e-05,
        "meta_mean_motion_ddot": 0,
        "tle_line1": "1 66765U 25276DD  25354.10878719  .00008073  00000+0  39266-3 0  9998",
        "tle_line2": "2 66765  97.4432  65.7842 0001776 122.5076 237.6330 15.18662089  3246"
      },
      "geometry": {
        "type": "Point",
        "coordinates": [
          -109.88245473570284,
          28.359408252791795
        ]
      }
    },
    {
      "type": "Feature",
      "properties": {
        "norad_id": 66766,
        "name": "TRANSPORTER-15 DE",
        "group": "last-30-days",
        "lat": 40.48139662876369,
        "lon": -107.54857529150338,
        "alt_km": 506.71492396382473,
        "timestamp": "2025-12-20T09:36:00.353009+00:00",
        "meta_object_name": "TRANSPORTER-15 DE",
        "meta_object_id": "2025-276DE",
        "meta_epoch": "2025-12-19T23:30:00.683712",
        "meta_mean_motion": 15.18373426,
        "meta_eccentricity": 0.000197,
        "meta_inclination": 97.4373,
        "meta_ra_of_asc_node": 65.6361,
        "meta_arg_of_pericenter": 92.584,
        "meta_mean_anomaly": 267.5619,
        "meta_ephemeris_type": 0,
        "meta_classification_type": "U",
        "meta_norad_cat_id": 66766,
        "meta_element_set_no": 999,
        "meta_rev_at_epoch": 322,
        "meta_bstar": 0.00031029,
        "meta_mean_motion_dot": 6.311e-05,
        "meta_mean_motion_ddot": 0,
        "tle_line1": "1 66766U 25276DE  25353.97917458  .00006311  00000+0  31029-3 0  9999",
        "tle_line2": "2 66766  97.4373  65.6361 0001970  92.5840 267.5619 15.18373426  3221"
      },
      "geometry": {
        "type": "Point",
        "coordinates": [
          -107.54857529150338,
          40.48139662876369
        ]
      }
    },
    {
      "type": "Feature",
      "properties": {
        "norad_id": 66767,
        "name": "TRANSPORTER-15 DF",
        "group": "last-30-days",
        "lat": 44.07954662477831,
        "lon": -106.68130919597763,
        "alt_km": 506.40121662277033,
        "timestamp": "2025-12-20T09:36:00.353019+00:00",
        "meta_object_name": "TRANSPORTER-15 DF",
        "meta_object_id": "2025-276DF",
        "meta_epoch": "2025-12-19T15:36:24.283584",
        "meta_mean_motion": 15.18267281,
        "meta_eccentricity": 0.0002061,
        "meta_inclination": 97.4382,
        "meta_ra_of_asc_node": 65.3133,
        "meta_arg_of_pericenter": 92.7355,
        "meta_mean_anomaly": 267.4115,
        "meta_ephemeris_type": 0,
        "meta_classification_type": "U",
        "meta_norad_cat_id": 66767,
        "meta_element_set_no": 999,
        "meta_rev_at_epoch": 317,
        "meta_bstar": 0.00015018,
        "meta_mean_motion_dot": 3.009e-05,
        "meta_mean_motion_ddot": 0,
        "tle_line1": "1 66767U 25276DF  25353.65028106  .00003009  00000+0  15018-3 0  9999",
        "tle_line2": "2 66767  97.4382  65.3133 0002061  92.7355 267.4115 15.18267281  3176"
      },
      "geometry": {
        "type": "Point",
        "coordinates": [
          -106.68130919597763,
          44.07954662477831
        ]
      }
    },
    {
      "type": "Feature",
      "properties": {
        "norad_id": 66768,
        "name": "TRANSPORTER-15 DG",
        "group": "last-30-days",
        "lat": 34.25337715936748,
        "lon": -108.84444411294358,
        "alt_km": 507.4138447388568,
        "timestamp": "2025-12-20T09:36:00.353031+00:00",
        "meta_object_name": "TRANSPORTER-15 DG",
        "meta_object_id": "2025-276DG",
        "meta_epoch": "2025-12-20T01:03:19.352736",
        "meta_mean_motion": 15.18556463,
        "meta_eccentricity": 0.0002862,
        "meta_inclination": 97.4314,
        "meta_ra_of_asc_node": 65.7063,
        "meta_arg_of_pericenter": 71.97,
        "meta_mean_anomaly": 288.1846,
        "meta_ephemeris_type": 0,
        "meta_classification_type": "U",
        "meta_norad_cat_id": 66768,
        "meta_element_set_no": 999,
        "meta_rev_at_epoch": 323,
        "meta_bstar": 0.0029808,
        "meta_mean_motion_dot": 0.00061993,
        "meta_mean_motion_ddot": 0,
        "tle_line1": "1 66768U 25276DG  25354.04397399  .00061993  00000+0  29808-2 0  9994",
        "tle_line2": "2 66768  97.4314  65.7063 0002862  71.9700 288.1846 15.18556463  3231"
      },
      "geometry": {
        "type": "Point",
        "coordinates": [
          -108.84444411294358,
          34.25337715936748
        ]
      }
    },
    {
      "type": "Feature",
      "properties": {
        "norad_id": 66769,
        "name": "TRANSPORTER-15 DH",
        "group": "last-30-days",
        "lat": 38.32247051200799,
        "lon": -108.00382234767164,
        "alt_km": 506.4407284403578,
        "timestamp": "2025-12-20T09:36:00.353041+00:00",
        "meta_object_name": "TRANSPORTER-15 DH",
        "meta_object_id": "2025-276DH",
        "meta_epoch": "2025-12-20T04:14:07.902240",
        "meta_mean_motion": 15.18373095,
        "meta_eccentricity": 0.0002594,
        "meta_inclination": 97.4428,
        "meta_ra_of_asc_node": 65.8455,
        "meta_arg_of_pericenter": 110.9123,
        "meta_mean_anomaly": 249.2389,
        "meta_ephemeris_type": 0,
        "meta_classification_type": "U",
        "meta_norad_cat_id": 66769,
        "meta_element_set_no": 999,
        "meta_rev_at_epoch": 325,
        "meta_bstar": 0.00022511,
        "meta_mean_motion_dot": 4.559e-05,
        "meta_mean_motion_ddot": 0,
        "tle_line1": "1 66769U 25276DH  25354.17648035  .00004559  00000+0  22511-3 0  9995",
        "tle_line2": "2 66769  97.4428  65.8455 0002594 110.9123 249.2389 15.18373095  3259"
      },
      "geometry": {
        "type": "Point",
        "coordinates": [
          -108.00382234767164,
          38.32247051200799
        ]
      }
    },
    {
      "type": "Feature",
      "properties": {
        "norad_id": 66770,
        "name": "TRANSPORTER-15 DJ",
        "group": "last-30-days",
        "lat": 36.43721580725434,
        "lon": -108.38432455226257,
        "alt_km": 506.3217340157744,
        "timestamp": "2025-12-20T09:36:00.353052+00:00",
        "meta_object_name": "TRANSPORTER-15 DJ",
        "meta_object_id": "2025-276DJ",
        "meta_epoch": "2025-12-19T15:34:25.963968",
        "meta_mean_motion": 15.18367258,
        "meta_eccentricity": 0.0002954,
        "meta_inclination": 97.4459,
        "meta_ra_of_asc_node": 65.3356,
        "meta_arg_of_pericenter": 130.1383,
        "meta_mean_anomaly": 230.011,
        "meta_ephemeris_type": 0,
        "meta_classification_type": "U",
        "meta_norad_cat_id": 66770,
        "meta_element_set_no": 999,
        "meta_rev_at_epoch": 317,
        "meta_bstar": 0.00010651,
        "meta_mean_motion_dot": 2.121e-05,
        "meta_mean_motion_ddot": 0,
        "tle_line1": "1 66770U 25276DJ  25353.64891162  .00002121  00000+0  10651-3 0  9994",
        "tle_line2": "2 66770  97.4459  65.3356 0002954 130.1383 230.0110 15.18367258  3177"
      },
      "geometry": {
        "type": "Point",
        "coordinates": [
          -108.38432455226257,
          36.43721580725434
        ]
      }
    },
    {
      "type": "Feature",
      "properties": {
        "norad_id": 66771,
        "name": "TRANSPORTER-15 DK",
        "group": "last-30-days",
        "lat": 34.734890998345406,
        "lon": -108.72351163480946,
        "alt_km": 506.51190518916064,
        "timestamp": "2025-12-20T09:36:00.353064+00:00",
        "meta_object_name": "TRANSPORTER-15 DK",
        "meta_object_id": "2025-276DK",
        "meta_epoch": "2025-12-20T04:13:11.356032",
        "meta_mean_motion": 15.18436711,
        "meta_eccentricity": 0.0002975,
        "meta_inclination": 97.4468,
        "meta_ra_of_asc_node": 65.8526,
        "meta_arg_of_pericenter": 118.6079,
        "meta_mean_anomaly": 241.5455,
        "meta_ephemeris_type": 0,
        "meta_classification_type": "U",
        "meta_norad_cat_id": 66771,
        "meta_element_set_no": 999,
        "meta_rev_at_epoch": 325,
        "meta_bstar": 0.00052237,
        "meta_mean_motion_dot": 0.00010696,
        "meta_mean_motion_ddot": 0,
        "tle_line1": "1 66771U 25276DK  25354.17582588  .00010696  00000+0  52237-3 0  9995",
        "tle_line2": "2 66771  97.4468  65.8526 0002975 118.6079 241.5455 15.18436711  3257"
      },
      "geometry": {
        "type": "Point",
        "coordinates": [
          -108.72351163480946,
          34.734890998345406
        ]
      }
    }
  ]
}